start=new Date('2023-03-31T00:00:00.000Z').valueOf();
sats=[{"BSTAR":"0.00311300000000","TLE_LINE1":"1 47652U 21012AJ  23089.66528320  .00046455  00000-0  31130-2 0  9998","ARG_OF_PERICENTER":"86.8304","REV_AT_EPOCH":"11795","ELEMENT_SET_NO":"999","PERIAPSIS":"546.315","MEAN_ANOMALY":"273.2808","MEAN_ELEMENT_THEORY":"SGP4","INCLINATION":"53.0529","SITE":"AFETR","ECCENTRICITY":"0.00010780","RCS_SIZE":"LARGE","MEAN_MOTION_DOT":"0.00046455","NORAD_CAT_ID":"47652","APOAPSIS":"547.808","SEMIMAJOR_AXIS":"6925.196","LAUNCH_DATE":"2021-02-16","GP_ID":"229183267","MEAN_MOTION_DDOT":"0.0000000000000","OBJECT_TYPE":"PAYLOAD","MEAN_MOTION":"15.06449617","RA_OF_ASC_NODE":"217.5907","FILE":"3875726","CLASSIFICATION_TYPE":"U","PERIOD":"95.589","EPOCH":"2023-03-30T15:58:00.468480","DECAY_DATE":null,"REF_FRAME":"TEME","COUNTRY_CODE":"US","TLE_LINE2":"2 47652  53.0529 217.5907 0001078  86.8304 273.2808 15.06449617117952","EPHEMERIS_TYPE":"0","CENTER_NAME":"EARTH","TIME_SYSTEM":"UTC","OBJECT_NAME":"STARLINK-2036","OBJECT_ID":"2021-012AJ"},{"LAUNCH_DATE":"2021-02-16","SEMIMAJOR_AXIS":"6925.081","NORAD_CAT_ID":"47653","APOAPSIS":"548.083","MEAN_MOTION_DDOT":"0.0000000000000","GP_ID":"229183496","RA_OF_ASC_NODE":"197.0186","MEAN_MOTION":"15.06487185","OBJECT_TYPE":"PAYLOAD","DECAY_DATE":null,"EPOCH":"2023-03-30T19:01:06.745152","PERIOD":"95.587","CLASSIFICATION_TYPE":"U","FILE":"3875726","EPHEMERIS_TYPE":"0","TLE_LINE2":"2 47653  53.0522 197.0186 0001642  62.9937 297.1220 15.06487185118249","COUNTRY_CODE":"US","REF_FRAME":"TEME","CENTER_NAME":"EARTH","OBJECT_ID":"2021-012AK","OBJECT_NAME":"STARLINK-2037","TIME_SYSTEM":"UTC","BSTAR":"0.00332890000000","ELEMENT_SET_NO":"999","ARG_OF_PERICENTER":"62.9937","REV_AT_EPOCH":"11824","TLE_LINE1":"1 47653U 21012AK  23089.79243918  .00049771  00000-0  33289-2 0  9991","PERIAPSIS":"545.809","MEAN_ANOMALY":"297.1220","MEAN_ELEMENT_THEORY":"SGP4","SITE":"AFETR","INCLINATION":"53.0522","ECCENTRICITY":"0.00016420","MEAN_MOTION_DOT":"0.00049771","RCS_SIZE":"LARGE"},{"MEAN_ANOMALY":"317.1248","PERIAPSIS":"545.734","TLE_LINE1":"1 47654U 21012AL  23089.86798311  .00046750  00000-0  31296-2 0  9992","REV_AT_EPOCH":"11798","ARG_OF_PERICENTER":"42.9879","ELEMENT_SET_NO":"999","BSTAR":"0.00312960000000","RCS_SIZE":"LARGE","MEAN_MOTION_DOT":"0.00046750","ECCENTRICITY":"0.00017680","INCLINATION":"53.0524","SITE":"AFETR","MEAN_ELEMENT_THEORY":"SGP4","OBJECT_TYPE":"PAYLOAD","RA_OF_ASC_NODE":"216.6735","MEAN_MOTION":"15.06483255","GP_ID":"229181766","MEAN_MOTION_DDOT":"0.0000000000000","APOAPSIS":"548.183","NORAD_CAT_ID":"47654","SEMIMAJOR_AXIS":"6925.093","LAUNCH_DATE":"2021-02-16","TIME_SYSTEM":"UTC","OBJECT_NAME":"STARLINK-2038","OBJECT_ID":"2021-012AL","CENTER_NAME":"EARTH","REF_FRAME":"TEME","COUNTRY_CODE":"US","TLE_LINE2":"2 47654  53.0524 216.6735 0001768  42.9879 317.1248 15.06483255117989","EPHEMERIS_TYPE":"0","FILE":"3875726","CLASSIFICATION_TYPE":"U","PERIOD":"95.587","EPOCH":"2023-03-30T20:49:53.740704","DECAY_DATE":null},{"ECCENTRICITY":"0.00012580","RCS_SIZE":"LARGE","MEAN_MOTION_DOT":"0.00049699","MEAN_ELEMENT_THEORY":"SGP4","INCLINATION":"53.0529","SITE":"AFETR","PERIAPSIS":"546.159","MEAN_ANOMALY":"267.0657","BSTAR":"0.00332660000000","TLE_LINE1":"1 47655U 21012AM  23089.66159695  .00049699  00000-0  33266-2 0  9991","ELEMENT_SET_NO":"999","REV_AT_EPOCH":"11795","ARG_OF_PERICENTER":"93.0476","CENTER_NAME":"EARTH","OBJECT_NAME":"STARLINK-2039","TIME_SYSTEM":"UTC","OBJECT_ID":"2021-012AM","PERIOD":"95.588","CLASSIFICATION_TYPE":"U","FILE":"3875726","DECAY_DATE":null,"EPOCH":"2023-03-30T15:52:41.976480","COUNTRY_CODE":"US","REF_FRAME":"TEME","EPHEMERIS_TYPE":"0","TLE_LINE2":"2 47655  53.0529 217.6080 0001258  93.0476 267.0657 15.06459676117957","MEAN_MOTION_DDOT":"0.0000000000000","GP_ID":"229182516","OBJECT_TYPE":"PAYLOAD","MEAN_MOTION":"15.06459676","RA_OF_ASC_NODE":"217.6080","SEMIMAJOR_AXIS":"6925.166","APOAPSIS":"547.902","NORAD_CAT_ID":"47655","LAUNCH_DATE":"2021-02-16"},{"LAUNCH_DATE":"2021-02-16","SEMIMAJOR_AXIS":"6925.231","NORAD_CAT_ID":"47656","APOAPSIS":"548.000","MEAN_MOTION":"15.06438402","RA_OF_ASC_NODE":"197.8308","OBJECT_TYPE":"PAYLOAD","MEAN_MOTION_DDOT":"0.0000000000000","GP_ID":"229182768","EPHEMERIS_TYPE":"0","TLE_LINE2":"2 47656  53.0520 197.8308 0001305  43.5824 316.5268 15.06438402118224","COUNTRY_CODE":"US","REF_FRAME":"TEME","DECAY_DATE":null,"EPOCH":"2023-03-30T14:41:03.781248","PERIOD":"95.590","CLASSIFICATION_TYPE":"U","FILE":"3875726","OBJECT_ID":"2021-012AN","OBJECT_NAME":"STARLINK-2040","TIME_SYSTEM":"UTC","CENTER_NAME":"EARTH","ELEMENT_SET_NO":"999","ARG_OF_PERICENTER":"43.5824","REV_AT_EPOCH":"11822","TLE_LINE1":"1 47656U 21012AN  23089.61184932  .00033440  00000-0  22509-2 0  9994","BSTAR":"0.00225090000000","MEAN_ANOMALY":"316.5268","PERIAPSIS":"546.192","SITE":"AFETR","INCLINATION":"53.0520","MEAN_ELEMENT_THEORY":"SGP4","MEAN_MOTION_DOT":"0.00033440","RCS_SIZE":"LARGE","ECCENTRICITY":"0.00013050"},{"MEAN_MOTION_DOT":"0.00046188","RCS_SIZE":"LARGE","ECCENTRICITY":"0.00012420","SITE":"AFETR","INCLINATION":"53.0522","MEAN_ELEMENT_THEORY":"SGP4","MEAN_ANOMALY":"261.5377","PERIAPSIS":"546.160","REV_AT_EPOCH":"11794","ARG_OF_PERICENTER":"98.5753","ELEMENT_SET_NO":"999","TLE_LINE1":"1 47657U 21012AP  23089.61736768  .00046188  00000-0  30942-2 0  9998","BSTAR":"0.00309420000000","OBJECT_ID":"2021-012AP","TIME_SYSTEM":"UTC","OBJECT_NAME":"STARLINK-2041","CENTER_NAME":"EARTH","TLE_LINE2":"2 47657  53.0522 217.8064 0001242  98.5753 261.5377 15.06463085117943","EPHEMERIS_TYPE":"0","COUNTRY_CODE":"US","REF_FRAME":"TEME","EPOCH":"2023-03-30T14:49:00.567552","DECAY_DATE":null,"FILE":"3875726","CLASSIFICATION_TYPE":"U","PERIOD":"95.588","RA_OF_ASC_NODE":"217.8064","MEAN_MOTION":"15.06463085","OBJECT_TYPE":"PAYLOAD","GP_ID":"229182997","MEAN_MOTION_DDOT":"0.0000000000000","LAUNCH_DATE":"2021-02-16","APOAPSIS":"547.880","NORAD_CAT_ID":"47657","SEMIMAJOR_AXIS":"6925.155"},{"LAUNCH_DATE":"2021-02-16","SEMIMAJOR_AXIS":"6925.258","APOAPSIS":"547.999","NORAD_CAT_ID":"47658","MEAN_MOTION_DDOT":"0.0000000000000","GP_ID":"229182266","RA_OF_ASC_NODE":"217.5421","MEAN_MOTION":"15.06429443","OBJECT_TYPE":"PAYLOAD","DECAY_DATE":null,"EPOCH":"2023-03-30T16:13:56.433504","PERIOD":"95.590","CLASSIFICATION_TYPE":"U","FILE":"3875726","EPHEMERIS_TYPE":"0","TLE_LINE2":"2 47658  53.0518 217.5421 0001265  51.6211 308.4891 15.06429443117972","REF_FRAME":"TEME","COUNTRY_CODE":"US","CENTER_NAME":"EARTH","OBJECT_ID":"2021-012AQ","OBJECT_NAME":"STARLINK-2042","TIME_SYSTEM":"UTC","BSTAR":"0.00283470000000","ELEMENT_SET_NO":"999","REV_AT_EPOCH":"11797","ARG_OF_PERICENTER":"51.6211","TLE_LINE1":"1 47658U 21012AQ  23089.67634761  .00042229  00000-0  28347-2 0  9993","PERIAPSIS":"546.247","MEAN_ANOMALY":"308.4891","MEAN_ELEMENT_THEORY":"SGP4","SITE":"AFETR","INCLINATION":"53.0518","ECCENTRICITY":"0.00012650","MEAN_MOTION_DOT":"0.00042229","RCS_SIZE":"LARGE"},{"LAUNCH_DATE":"2021-02-16","NORAD_CAT_ID":"47659","APOAPSIS":"548.380","SEMIMAJOR_AXIS":"6925.377","GP_ID":"229182017","MEAN_MOTION_DDOT":"0.0000000000000","RA_OF_ASC_NODE":"98.6164","MEAN_MOTION":"15.06390707","OBJECT_TYPE":"PAYLOAD","EPOCH":"2023-03-30T10:28:55.408224","DECAY_DATE":null,"FILE":"3875726","PERIOD":"95.593","CLASSIFICATION_TYPE":"U","TLE_LINE2":"2 47659  53.0531  98.6164 0001643  99.1869 260.9305 15.06390707119576","EPHEMERIS_TYPE":"0","REF_FRAME":"TEME","COUNTRY_CODE":"US","CENTER_NAME":"EARTH","OBJECT_ID":"2021-012AR","TIME_SYSTEM":"UTC","OBJECT_NAME":"STARLINK-2043","BSTAR":"0.00023549000000","ARG_OF_PERICENTER":"99.1869","REV_AT_EPOCH":"11957","ELEMENT_SET_NO":"999","TLE_LINE1":"1 47659U 21012AR  23089.43675241  .00003227  00000-0  23549-3 0  9991","PERIAPSIS":"546.104","MEAN_ANOMALY":"260.9305","MEAN_ELEMENT_THEORY":"SGP4","SITE":"AFETR","INCLINATION":"53.0531","ECCENTRICITY":"0.00016430","MEAN_MOTION_DOT":"0.00003227","RCS_SIZE":"LARGE"},{"EPOCH":"2023-03-30T09:21:21.420000","DECAY_DATE":null,"FILE":"3875726","CLASSIFICATION_TYPE":"U","PERIOD":"95.591","TLE_LINE2":"2 47660  53.0534  89.4491 0001439  81.2906 278.8246 15.06413892119707","EPHEMERIS_TYPE":"0","REF_FRAME":"TEME","COUNTRY_CODE":"US","CENTER_NAME":"EARTH","OBJECT_ID":"2021-012AS","TIME_SYSTEM":"UTC","OBJECT_NAME":"STARLINK-2044","LAUNCH_DATE":"2021-02-16","NORAD_CAT_ID":"47660","APOAPSIS":"548.168","SEMIMAJOR_AXIS":"6925.306","GP_ID":"229183268","MEAN_MOTION_DDOT":"0.0000000000000","MEAN_MOTION":"15.06413892","RA_OF_ASC_NODE":"89.4491","OBJECT_TYPE":"PAYLOAD","MEAN_ELEMENT_THEORY":"SGP4","SITE":"AFETR","INCLINATION":"53.0534","ECCENTRICITY":"0.00014390","MEAN_MOTION_DOT":"0.00013374","RCS_SIZE":"LARGE","BSTAR":"0.00091466000000","ARG_OF_PERICENTER":"81.2906","REV_AT_EPOCH":"11970","ELEMENT_SET_NO":"999","TLE_LINE1":"1 47660U 21012AS  23089.38983125  .00013374  00000-0  91466-3 0  9997","PERIAPSIS":"546.174","MEAN_ANOMALY":"278.8246"},{"BSTAR":"0.00331180000000","TLE_LINE1":"1 47661U 21012AT  23089.57497489  .00049477  00000-0  33118-2 0  9994","ELEMENT_SET_NO":"999","ARG_OF_PERICENTER":"76.7064","REV_AT_EPOCH":"11770","PERIAPSIS":"545.967","MEAN_ANOMALY":"283.4095","MEAN_ELEMENT_THEORY":"SGP4","INCLINATION":"53.0522","SITE":"AFETR","ECCENTRICITY":"0.00015310","RCS_SIZE":"LARGE","MEAN_MOTION_DOT":"0.00049477","SEMIMAJOR_AXIS":"6925.162","NORAD_CAT_ID":"47661","APOAPSIS":"548.087","LAUNCH_DATE":"2021-02-16","MEAN_MOTION_DDOT":"0.0000000000000","GP_ID":"229151277","OBJECT_TYPE":"PAYLOAD","RA_OF_ASC_NODE":"197.9926","MEAN_MOTION":"15.06460840","CLASSIFICATION_TYPE":"U","PERIOD":"95.588","FILE":"3875180","DECAY_DATE":null,"EPOCH":"2023-03-30T13:47:57.830496","REF_FRAME":"TEME","COUNTRY_CODE":"US","EPHEMERIS_TYPE":"0","TLE_LINE2":"2 47661  53.0522 197.9926 0001531  76.7064 283.4095 15.06460840117707","CENTER_NAME":"EARTH","OBJECT_NAME":"STARLINK-2051","TIME_SYSTEM":"UTC","OBJECT_ID":"2021-012AT"}];
